{"type": "FeatureCollection", "features": [ {"type": "Feature", "properties": {"norad_id": 35773, "name": "COSMOS 2251 DEB", "group": "cosmos-2251-debris", "lat": 73.17019756988823, "lon": 72.00623095095308, "alt_km": 650.1363262849654, "timestamp": "2025-12-21T18:54:58.892251+00:00", "meta": {"OBJECT_NAME": "COSMOS 2251 DEB", "OBJECT_ID": "1993-036ART", "EPOCH": "2025-12-20T07:59:54.023424", "MEAN_MOTION": 14.62106943, "ECCENTRICITY": 0.00452591, "INCLINATION": 74.0079, "RA_OF_ASC_NODE": 326.2549, "ARG_OF_PERICENTER": 124.0691, "MEAN_ANOMALY": 236.4785, "EPHEMERIS_TYPE": 0, "CLASSIFICATION_TYPE": "U", "NORAD_CAT_ID": 35773, "ELEMENT_SET_NO": 999, "REV_AT_EPOCH": 86950, "BSTAR": 0.00039637734, "MEAN_MOTION_DOT": 1.991e-05, "MEAN_MOTION_DDOT": 0}, "tle": {"line1": "1 35773U 93036ART 25354.33326416  .00001991  00000+0  39638-3 0  9994", "line2": "2 35773  74.0079 326.2549 0045259 124.0691 236.4785 14.62106943869502"}}, "geometry": {"type": "Point", "coordinates": [72.00623095095308, 73.17019756988823]}}, {"type": "Feature", "properties": {"norad_id": 35777, "name": "COSMOS 2251 DEB", "group": "cosmos-2251-debris", "lat": -62.3222784620609, "lon": -85.44824010621056, "alt_km": 1101.7049843244813, "timestamp": "2025-12-21T18:54:58.892261+00:00", "meta": {"OBJECT_NAME": "COSMOS 2251 DEB", "OBJECT_ID": "1993-036ARX", "EPOCH": "2025-12-21T03:15:52.333632", "MEAN_MOTION": 13.41306169, "ECCENTRICITY": 0.04518911, "INCLINATION": 73.7705, "RA_OF_ASC_NODE": 309.3239, "ARG_OF_PERICENTER": 202.9304, "MEAN_ANOMALY": 176.7174, "EPHEMERIS_TYPE": 0, "CLASSIFICATION_TYPE": "U", "NORAD_CAT_ID": 35777, "ELEMENT_SET_NO": 999, "REV_AT_EPOCH": 79797, "BSTAR": 0.00012977611, "MEAN_MOTION_DOT": 1.09e-06, "MEAN_MOTION_DDOT": 0}, "tle": {"line1": "1 35777U 93036ARX 25355.13602238  .00000109  00000+0  12978-3 0  9994", "line2": "2 35777  73.7705 309.3239 0451891 202.9304 176.7174 13.41306169797973"}}, "geometry": {"type": "Point", "coordinates": [-85.44824010621056, -62.3222784620609]}}, {"type": "Feature", "properties": {"norad_id": 35784, "name": "COSMOS 2251 DEB", "group": "cosmos-2251-debris", "lat": 70.67571670314135, "lon": 127.41499649082726, "alt_km": 734.200618114347, "timestamp": "2025-12-21T18:54:58.892271+00:00", "meta": {"OBJECT_NAME": "COSMOS 2251 DEB", "OBJECT_ID": "1993-036ASE", "EPOCH": "2025-12-17T23:28:57.859680", "MEAN_MOTION": 14.50055355, "ECCENTRICITY": 0.00415956, "INCLINATION": 74.0403, "RA_OF_ASC_NODE": 79.8718, "ARG_OF_PERICENTER": 209.9484, "MEAN_ANOMALY": 149.9297, "EPHEMERIS_TYPE": 0, "CLASSIFICATION_TYPE": "U", "NORAD_CAT_ID": 35784, "ELEMENT_SET_NO": 999, "REV_AT_EPOCH": 65782, "BSTAR": 0.00024795111, "MEAN_MOTION_DOT": 9.44e-06, "MEAN_MOTION_DDOT": 0}, "tle": {"line1": "1 35784U 93036ASE 25351.97844745  .00000944  00000+0  24795-3 0  9998", "line2": "2 35784  74.0403  79.8718 0041595 209.9484 149.9297 14.50055355657829"}}, "geometry": {"type": "Point", "coordinates": [127.41499649082726, 70.67571670314135]}}, {"type": "Feature", "properties": {"norad_id": 35786, "name": "COSMOS 2251 DEB", "group": "cosmos-2251-debris", "lat": 13.524264357097492, "lon": -157.64657572597577, "alt_km": 650.5154663157591, "timestamp": "2025-12-21T18:54:58.892281+00:00", "meta": {"OBJECT_NAME": "COSMOS 2251 DEB", "OBJECT_ID": "1993-036ASG", "EPOCH": "2025-12-19T18:40:39.541152", "MEAN_MOTION": 14.66292121, "ECCENTRICITY": 0.00334702, "INCLINATION": 74.0141, "RA_OF_ASC_NODE": 30.1848, "ARG_OF_PERICENTER": 158.321, "MEAN_ANOMALY": 201.9385, "EPHEMERIS_TYPE": 0, "CLASSIFICATION_TYPE": "U", "NORAD_CAT_ID": 35786, "ELEMENT_SET_NO": 999, "REV_AT_EPOCH": 73511, "BSTAR": 0.00056402109, "MEAN_MOTION_DOT": 3.106e-05, "MEAN_MOTION_DDOT": 0}, "tle": {"line1": "1 35786U 93036ASG 25353.77823543  .00003106  00000+0  56402-3 0  9996", "line2": "2 35786  74.0141  30.1848 0033470 158.3210 201.9385 14.66292121735118"}}, "geometry": {"type": "Point", "coordinates": [-157.64657572597577, 13.524264357097492]}}, {"type": "Feature", "properties": {"norad_id": 35789, "name": "COSMOS 2251 DEB", "group": "cosmos-2251-debris", "lat": -45.040953590191776, "lon": -108.89325102436868, "alt_km": 757.1722954674215, "timestamp": "2025-12-21T18:54:58.892291+00:00", "meta": {"OBJECT_NAME": "COSMOS 2251 DEB", "OBJECT_ID": "1993-036ASK", "EPOCH": "2025-12-20T11:22:01.638048", "MEAN_MOTION": 14.35991601, "ECCENTRICITY": 0.00476765, "INCLINATION": 74.0388, "RA_OF_ASC_NODE": 270.1736, "ARG_OF_PERICENTER": 7.6909, "MEAN_ANOMALY": 352.4963, "EPHEMERIS_TYPE": 0, "CLASSIFICATION_TYPE": "U", "NORAD_CAT_ID": 35789, "ELEMENT_SET_NO": 999, "REV_AT_EPOCH": 61338, "BSTAR": 9.629757e-05, "MEAN_MOTION_DOT": 2.57e-06, "MEAN_MOTION_DDOT": 0}, "tle": {"line1": "1 35789U 93036ASK 25354.47363007  .00000257  00000+0  96298-4 0  9993", "line2": "2 35789  74.0388 270.1736 0047676   7.6909 352.4963 14.35991601613383"}}, "geometry": {"type": "Point", "coordinates": [-108.89325102436868, -45.040953590191776]}}, {"type": "Feature", "properties": {"norad_id": 35793, "name": "COSMOS 2251 DEB", "group": "cosmos-2251-debris", "lat": -39.641570516833404, "lon": 28.684894668727708, "alt_km": 639.8966772611439, "timestamp": "2025-12-21T18:54:58.892301+00:00", "meta": {"OBJECT_NAME": "COSMOS 2251 DEB", "OBJECT_ID": "1993-036ASP", "EPOCH": "2025-12-21T12:55:34.256352", "MEAN_MOTION": 14.7886459, "ECCENTRICITY": 0.00021549, "INCLINATION": 74.0406, "RA_OF_ASC_NODE": 42.8902, "ARG_OF_PERICENTER": 82.845, "MEAN_ANOMALY": 347.45, "EPHEMERIS_TYPE": 0, "CLASSIFICATION_TYPE": "U", "NORAD_CAT_ID": 35793, "ELEMENT_SET_NO": 999, "REV_AT_EPOCH": 65927, "BSTAR": 0.001180574, "MEAN_MOTION_DOT": 8.673e-05, "MEAN_MOTION_DDOT": 0}, "tle": {"line1": "1 35793U 93036ASP 25355.53859093  .00008673  00000+0  11806-2 0  9991", "line2": "2 35793  74.0406  42.8902 0002154  82.8450 347.4500 14.78864590659278"}}, "geometry": {"type": "Point", "coordinates": [28.684894668727708, -39.641570516833404]}}, {"type": "Feature", "properties": {"norad_id": 35824, "name": "COSMOS 2251 DEB", "group": "cosmos-2251-debris", "lat": -71.33391634002386, "lon": -25.853557756570556, "alt_km": 1112.6198727343317, "timestamp": "2025-12-21T18:54:58.892310+00:00", "meta": {"OBJECT_NAME": "COSMOS 2251 DEB", "OBJECT_ID": "1993-036ASW", "EPOCH": "2025-12-21T08:56:41.476128", "MEAN_MOTION": 13.88446909, "ECCENTRICITY": 0.02476754, "INCLINATION": 73.8455, "RA_OF_ASC_NODE": 33.9512, "ARG_OF_PERICENTER": 118.4856, "MEAN_ANOMALY": 244.1458, "EPHEMERIS_TYPE": 0, "CLASSIFICATION_TYPE": "U", "NORAD_CAT_ID": 35824, "ELEMENT_SET_NO": 999, "REV_AT_EPOCH": 84347, "BSTAR": 0.00083575798, "MEAN_MOTION_DOT": 1.258e-05, "MEAN_MOTION_DDOT": 0}, "tle": {"line1": "1 35824U 93036ASW 25355.37270227  .00001258  00000+0  83576-3 0  9990", "line2": "2 35824  73.8455  33.9512 0247675 118.4856 244.1458 13.88446909843479"}}, "geometry": {"type": "Point", "coordinates": [-25.853557756570556, -71.33391634002386]}}, {"type": "Feature", "properties": {"norad_id": 35825, "name": "COSMOS 2251 DEB", "group": "cosmos-2251-debris", "lat": 72.34963810655967, "lon": -168.71888129508133, "alt_km": 1181.5008306026575, "timestamp": "2025-12-21T18:54:58.892320+00:00", "meta": {"OBJECT_NAME": "COSMOS 2251 DEB", "OBJECT_ID": "1993-036ASX", "EPOCH": "2025-12-14T02:36:29.406816", "MEAN_MOTION": 13.70963524, "ECCENTRICITY": 0.03526119, "INCLINATION": 74.113, "RA_OF_ASC_NODE": 140.3902, "ARG_OF_PERICENTER": 235.9093, "MEAN_ANOMALY": 120.8102, "EPHEMERIS_TYPE": 0, "CLASSIFICATION_TYPE": "U", "NORAD_CAT_ID": 35825, "ELEMENT_SET_NO": 999, "REV_AT_EPOCH": 82527, "BSTAR": 0.0023333684, "MEAN_MOTION_DOT": 3.214e-05, "MEAN_MOTION_DDOT": 0}, "tle": {"line1": "1 35825U 93036ASX 25348.10867369  .00003214  00000+0  23334-2 0  9992", "line2": "2 35825  74.1130 140.3902 0352611 235.9093 120.8102 13.70963524825277"}}, "geometry": {"type": "Point", "coordinates": [-168.71888129508133, 72.34963810655967]}}, {"type": "Feature", "properties": {"norad_id": 35829, "name": "COSMOS 2251 DEB", "group": "cosmos-2251-debris", "lat": 19.602991179947292, "lon": -104.77876856627816, "alt_km": 636.609504712008, "timestamp": "2025-12-21T18:54:58.892330+00:00", "meta": {"OBJECT_NAME": "COSMOS 2251 DEB", "OBJECT_ID": "1993-036ATB", "EPOCH": "2025-12-17T00:21:46.598688", "MEAN_MOTION": 14.76400839, "ECCENTRICITY": 0.0005573, "INCLINATION": 74.0249, "RA_OF_ASC_NODE": 90.4281, "ARG_OF_PERICENTER": 146.0686, "MEAN_ANOMALY": 214.0846, "EPHEMERIS_TYPE": 0, "CLASSIFICATION_TYPE": "U", "NORAD_CAT_ID": 35829, "ELEMENT_SET_NO": 999, "REV_AT_EPOCH": 87838, "BSTAR": 0.001494418, "MEAN_MOTION_DOT": 0.00010373, "MEAN_MOTION_DDOT": 0}, "tle": {"line1": "1 35829U 93036ATB 25351.01512267  .00010373  00000+0  14944-2 0  9995", "line2": "2 35829  74.0249  90.4281 0005573 146.0686 214.0846 14.76400839878381"}}, "geometry": {"type": "Point", "coordinates": [-104.77876856627816, 19.602991179947292]}}, {"type": "Feature", "properties": {"norad_id": 35830, "name": "COSMOS 2251 DEB", "group": "cosmos-2251-debris", "lat": -16.300409834662766, "lon": 74.82793040374362, "alt_km": 733.5358627862861, "timestamp": "2025-12-21T18:54:58.892339+00:00", "meta": {"OBJECT_NAME": "COSMOS 2251 DEB", "OBJECT_ID": "1993-036ATC", "EPOCH": "2025-12-17T01:01:27.071616", "MEAN_MOTION": 14.24015017, "ECCENTRICITY": 0.01218819, "INCLINATION": 73.8614, "RA_OF_ASC_NODE": 258.6041, "ARG_OF_PERICENTER": 226.0627, "MEAN_ANOMALY": 133.0413, "EPHEMERIS_TYPE": 0, "CLASSIFICATION_TYPE": "U", "NORAD_CAT_ID": 35830, "ELEMENT_SET_NO": 999, "REV_AT_EPOCH": 61325, "BSTAR": 0.00082142349, "MEAN_MOTION_DOT": 2.01e-05, "MEAN_MOTION_DDOT": 0}, "tle": {"line1": "1 35830U 93036ATC 25351.04267444  .00002010  00000+0  82142-3 0  9999", "line2": "2 35830  73.8614 258.6041 0121881 226.0627 133.0413 14.24015017613259"}}, "geometry": {"type": "Point", "coordinates": [74.82793040374362, -16.300409834662766]}}]}